#dP2019  6  9  0  0  0.00000000      96 __u+U ITR00 FIT  IAC
## 2057      0.00000000   900.00000000 58643 0.0000000000000
+   92   C01C02C05C06C07C08C09C10C11C12C13C14C16E01E02E03E04
+        E05E07E08E09E11E12E13E14E15E18E19E21E24E25E26E27E30
+        E31E33E36G01G02G03G04G05G06G07G08G09G10G11G12G13G14
+        G15G16G17G18G19G20G21G22G23G24G25G26G27G28G29G30G31
+        G32R01R02R03R04R05R07R08R09R10R11R13R14R15R16R17R18
+        R19R20R21R22R23R24R26  0  0  0  0  0  0  0  0  0  0
++        13 12 13  9  8  9  8  8  8  8  9  8  8  5  5  5  6
++         6  5  5  6  6  6  5  5  5  5  6  5  5  5  5  5  5
++         5  5  6  4  4  4  0  3  4  4  4  4  4  4  4  4  4
++         4  4  4  4  4  4  4  4  4  4  4  4  4  4  3  7  4
++         4  5  5  5  6  6  6  5  5  5  5  6  6  6  6  5  5
++         6  6  5  5  5  6  8  0  0  0  0  0  0  0  0  0  0
%c M  cc GPS ccc cccc cccc cccc cccc ccccc ccccc ccccc ccccc
%c cc cc ccc ccc cccc cccc cccc cccc ccccc ccccc ccccc ccccc
%f  0.0000000  0.000000000  0.00000000000  0.000000000000000
%f  0.0000000  0.000000000  0.00000000000  0.000000000000000
%i    0    0    0    0      0      0      0      0         0
%i    0    0    0    0      0      0      0      0         0
/*                                                          
/*   RSA / INFORMATION & ANALYSIS CENTER (IAC) OF MCC       
/*   ULTRA-RAPID DETERMINATION                              
/* PCV:IGS14_2045 OL/AL:FES2004  NONE     YN ORB:CoN CLK:CoN
*  2019 06 09  6 30  0.00000000
PC01 -32305.383684  27066.972847    701.623044    690.159818
PC02   4351.628412  41949.124279    -91.305326    107.973839
PC05  21876.576685  36018.778173   -168.016047   -231.358814
PC06 -17623.852776  20201.348020 -32286.786593    914.749883
PC07 -22422.345765  35065.649722   4998.180052    154.034570
PC08  -5681.111333  32441.984583  26572.374901    164.091793
PC09   1523.139603  25146.630663 -33528.053408    827.995820
PC10  -9181.739078  36312.634122  19103.981650   -827.706429
PC11   1326.528194  18102.937720  21261.998303    286.885905
PC12 -22116.833906  -1704.997778  16941.727464    747.211345
PC13   4453.612604  39538.858529  14360.499940   -765.601884
PC14 -18831.713701  17536.473252 -10778.320465    573.500485
PC16 -13391.298549  21463.797223 -33716.152054   -925.441458
PE01 -16477.952993  23975.398011  -5442.943087   -622.369565
PE02  16448.993115 -24011.557870   5380.195437     64.004501
PE03  19474.877154 -13503.461995  17754.218244   -175.339328
PE04   1829.199378  17076.093057 -24096.458612   -299.091165
PE05  29521.491628  -1977.505380    943.317323   -476.670869
PE07 -22247.046031 -10665.913878  16361.435749   -203.754066
PE08  -2062.858466 -16920.614791  24209.756542   6342.720857
PE09  22381.703741  10348.155585 -16374.445000   6414.308925
PE11  19500.647772  21040.665060  -7252.310330   5680.532444
PE12   7514.041727  26011.822620  11935.899753   6355.437921
PE13 -19541.935428 -21070.752653   7118.038892    388.267509
PE14 -25582.377123  -9837.598329   -266.762484   -598.490304
PE15  -7970.693536 -26022.597810 -11644.542347    907.483563
PE18  26360.582186  -2289.425944 -14363.659489   -695.188081
PE19 -21118.460767  12582.004039 -16478.388418     -5.890204
PE21 -19462.352428   7516.086426 -20999.159255   -538.144876
PE24  11146.355980  13113.748061  24070.003490   6037.955895
PE25  19456.875892  -7469.421163  21024.636479   1778.773548
PE26 -19783.183405  -3798.786068  21689.634781   4474.162521
PE27 -10978.407286 -13331.216761 -24040.896112    452.935225
PE30   3849.146900 -26226.504858 -13182.224407   4804.821298
PE31  -3916.258427  26306.809002  12983.621606   -465.466976
PE33  -8316.885567  15736.938044  23651.621891   -469.987155
PE36  19693.750022   3745.368972 -21772.296140    701.960193
PG01 -14468.398377   3086.189126  21871.113486    -36.557714
PG02  14249.980271  18858.335353 -11656.019629   -233.060630
PG03 -21957.328940  10620.483587  10366.340732    186.130152
PG04  -6511.965302  13845.725574 -21696.817193    166.519919
PG05  14260.744751   7356.885928 -21313.073576      0.618160
PG06   6384.471900  25755.278803   -504.533851    182.971234
PG07  -8652.192033  17734.840909 -17282.453929    -40.838427
PG08 -25964.048552  -4853.607850   3745.636553   -146.737527
PG09 -13619.266724  10921.901106 -20058.161729    395.250089
PG10   6503.324437 -20682.052621  15271.092812     21.711873
PG11 -18466.786592   -108.955337  18475.430252   -588.604964
PG12  22225.664463  -8019.400085  11741.467704    234.836163
PG13  22814.739023  13111.689358  -3908.754079    -59.907340
PG14 -12287.617686 -17228.586135  16487.944723    -76.882355
PG15  26319.257538   2247.078371   4084.838252   -308.146943
PG16 -13694.846166  -7631.100040 -21693.403614    -46.626892
PG17   3625.445454  16263.782299  21111.722743     68.664419
PG18 -16241.944695  -6828.174985  19421.405431     60.412363
PG19  11168.707226  16876.450679  16859.892204   -308.831750
PG20  12789.184132 -22336.994902   6117.140080    525.271249
PG21   3309.844297 -22376.063362 -13251.040051   -176.674990
PG22 -20669.141457   4360.965775  16286.202538   -714.225718
PG23 -23721.067318   2181.801313 -11813.506407   -182.584974
PG24  16052.244319     87.192872  21042.394330    -67.208184
PG25  19566.203539 -17743.655862    461.046953   -764.100297
PG26  -5112.300852 -15736.926365 -20761.517475    222.422475
PG27 -22406.667307 -12306.391967  -7870.700273   -153.120467
PG28  -8493.797258  20048.256986  15881.885049    767.565467
PG29  17686.037782  -6589.415045 -18727.745174    180.989950
PG30      0.000000      0.000000      0.000000 999999.999999
PG31  -6740.361810 -25337.269587  -2276.198823     32.359538
PG32  -5800.116338 -16498.742968  20083.729336    -51.365068
PR01 -12541.222471  12719.755259 -18193.214663     45.059861
PR02   9060.220401   8501.380220 -22224.744538    372.637048
PR03  22708.973949   -372.704256 -11521.816969     -3.548063
PR04  22890.719113  -9279.515045   6362.618141    309.438993
PR05  10408.872073 -12392.960303  19725.944362     29.702501
PR07 -22962.822578    594.703226  11171.251773    -21.452276
PR08 -23252.601013   8904.485287  -5499.102729     17.364489
PR09  -4025.168460 -17974.146736 -17669.543858     74.123482
PR10 -10231.238043  -3251.333542 -23160.740493     51.730600
PR11 -12191.996202  15764.234765 -15878.193945    -68.831845
PR13   3029.728342  19260.228344  16423.806035    -24.670552
PR14  10574.049876   2953.123347  23034.192339     39.779462
PR15  12221.331708 -15056.733952  16591.429164    102.441363
PR16   6348.348173 -24641.838345    314.668081      8.735852
PR17  19420.045809  12814.511014 -10488.624418    234.314669
PR18  13116.413258   -780.221262 -21840.551492     -3.901971
PR19    155.923971 -13832.469117 -21435.116715    -35.292511
PR20 -14270.224152 -19894.656120  -7244.850757   -380.677532
PR21 -19316.486695 -12387.746085  11113.428031    -52.899478
PR22 -11421.168837   2898.206639  22641.015660    -23.080924
PR23   4594.425446  16727.972811  18687.641895    233.239081
PR24  15580.692127  19431.698678   5434.051701   -181.347169
PR26 -12975.619248 -19589.296065  -9891.205019     -7.558641
EOF
